47873,STARLINK-2329,2021,95.59,260.0,+,53.05,Active,1,LEO,USA,USA,Commercial,Communications,Falcon,1 47873U 21021P   25300.85863140  .00002060  00000+0  15711-3 0  9995,2 47873  53.0541 137.9175 0001424  90.5349 269.5803 15.06405723256305,15.06405723,0.0001424,LEO
47874,STARLINK-2330,2021,95.59,260.0,+,53.06,Active,1,LEO,USA,USA,Commercial,Communications,Falcon,1 47874U 21021Q   25301.13368893  .00000478  00000+0  51004-4 0  9990,2 47874  53.0547  91.6921 0001353  89.6573 270.4572 15.06397891256980,15.06397891,0.0001353,LEO
47879,STARLINK-2336,2021,95.59,260.0,+,53.05,Active,1,LEO,USA,USA,Commercial,Communications,Falcon,1 47879U 21021V   25301.59167625 -.00001136  00000+0 -57341-4 0  9999,2 47879  53.0533 159.6281 0001574  89.5742 270.5427 15.06406380256249,15.0640638,0.0001574,LEO
47882,STARLINK-2340,2021,91.87,260.0,P,53.04,Active,1,LEO,USA,USA,Commercial,Communications,Falcon,1 47882U 21021Y   25301.66674769  .00153396  00000+0  13502-2 0  9996,2 47882  53.0375  64.7117 0004909 296.2891 114.7985 15.67772406  5745,15.67772406,0.0004909,LEO
47883,STARLINK-2342,2021,95.59,260.0,+,53.05,Active,1,LEO,USA,USA,Commercial,Communications,Falcon,1 47883U 21021Z   25301.60365508  .00006621  00000+0  46282-3 0  9999,2 47883  53.0509 149.5749 0001306  96.3177 263.7961 15.06409085256382,15.06409085,0.0001306,LEO
47884,STARLINK-2343,2021,95.59,260.0,+,53.05,Active,1,LEO,USA,USA,Commercial,Communications,Falcon,1 47884U 21021AA  25301.58661948 -.00000552  00000+0 -18139-4 0  9994,2 47884  53.0540 154.6531 0001465 104.8492 255.2659 15.06397915256136,15.06397915,0.0001465,LEO
47887,STARLINK-2346,2021,95.59,260.0,+,53.05,Active,1,LEO,USA,USA,Commercial,Communications,Falcon,1 47887U 21021AD  25300.87522160  .00001174  00000+0  97657-4 0  9991,2 47887  53.0532 157.8482 0001454  92.3300 267.7855 15.06405958256039,15.06405958,0.0001454,LEO
47894,STARLINK-2354,2021,95.59,260.0,+,53.05,Active,1,LEO,USA,USA,Commercial,Communications,Falcon,1 47894U 21021AL  25301.27054023  .00000906  00000+0  79734-4 0  9990,2 47894  53.0529 146.0729 0001426  85.2307 274.8845 15.06398007256184,15.06398007,0.0001426,LEO
47895,STARLINK-2355,2021,95.59,260.0,+,53.05,Active,1,LEO,USA,USA,Commercial,Communications,Falcon,1 47895U 21021AM  25301.54698593  .00001576  00000+0  12466-3 0  9999,2 47895  53.0542 144.8323 0001302  93.7700 266.3438 15.06399170256254,15.0639917,0.0001302,LEO
47896,STARLINK-2356,2021,95.59,260.0,+,53.05,Active,1,LEO,USA,USA,Commercial,Communications,Falcon,1 47896U 21021AN  25301.60641687  .00003343  00000+0  24317-3 0  9991,2 47896  53.0509 159.5657 0001314  87.6144 272.4996 15.06404841256022,15.06404841,0.0001314,LEO
47898,STARLINK-2358,2021,95.59,260.0,+,53.05,Active,1,LEO,USA,USA,Commercial,Communications,Falcon,1 47898U 21021AQ  25301.27423131  .00000779  00000+0  71167-4 0  9994,2 47898  53.0539 146.0583 0001323  92.1912 267.9229 15.06398159256189,15.06398159,0.0001323,LEO
47901,STARLINK-2361,2021,95.59,260.0,+,53.06,Active,1,LEO,USA,USA,Commercial,Communications,Falcon,1 47901U 21021AT  25301.26042195  .00001391  00000+0  11227-3 0  9996,2 47901  53.0521 136.2038 0001248  97.6262 262.4869 15.06396512256366,15.06396512,0.0001248,LEO
47903,STARLINK-2363,2021,95.59,260.0,+,53.05,Active,1,LEO,USA,USA,Commercial,Communications,Falcon,1 47903U 21021AV  25301.26683801  .00004078  00000+0  29253-3 0  9996,2 47903  53.0528 136.0792 0001318  87.4381 272.6759 15.06398725256715,15.06398725,0.0001318,LEO
47904,STARLINK-2364,2021,95.59,260.0,+,53.05,Active,1,LEO,USA,USA,Commercial,Communications,Falcon,1 47904U 21021AW  25301.52947102  .00001620  00000+0  12761-3 0  9999,2 47904  53.0527 134.9107 0001183  92.0237 268.0887 15.06397648256392,15.06397648,0.0001183,LEO
47907,STARLINK-2367,2021,95.59,260.0,+,53.05,Active,1,LEO,USA,USA,Commercial,Communications,Falcon,1 47907U 21021AZ  25301.33596207  .00003247  00000+0  23676-3 0  9991,2 47907  53.0516 155.7803 0001328  77.0225 283.0913 15.06403887256062,15.06403887,0.0001328,LEO
47908,STARLINK-2368,2021,92.75,260.0,P,53.05,Active,1,LEO,USA,USA,Commercial,Communications,Falcon,1 47908U 21021BA  25297.91671295  .01139379  00000+0  16717-1 0  9994,2 47908  53.0535 166.1849 0001015  86.8152  51.7902 15.52507398  5793,15.52507398,0.0001015,LEO
