[{"OBJECT_NAME":"STARLINK-2329","OBJECT_ID":"2021-021P","EPOCH":"2025-10-27T20:36:25.752960","MEAN_MOTION":15.06405723,"ECCENTRICITY":0.00014243,"INCLINATION":53.0541,"RA_OF_ASC_NODE":137.9175,"ARG_OF_PERICENTER":90.5349,"MEAN_ANOMALY":269.5803,"EPHEMERIS_TYPE":0,"CLASSIFICATION_TYPE":"U","NORAD_CAT_ID":47873,"ELEMENT_SET_NO":999,"REV_AT_EPOCH":25630,"BSTAR":0.00015711003,"MEAN_MOTION_DOT":2.06e-5,"MEAN_MOTION_DDOT":0},{"OBJECT_NAME":"STARLINK-2330","OBJECT_ID":"2021-021Q","EPOCH":"2025-10-28T03:12:30.723552","MEAN_MOTION":15.06397891,"ECCENTRICITY":0.00013538,"INCLINATION":53.0547,"RA_OF_ASC_NODE":91.6921,"ARG_OF_PERICENTER":89.6573,"MEAN_ANOMALY":270.4572,"EPHEMERIS_TYPE":0,"CLASSIFICATION_TYPE":"U","NORAD_CAT_ID":47874,"ELEMENT_SET_NO":999,"REV_AT_EPOCH":25698,"BSTAR":5.1003747e-5,"MEAN_MOTION_DOT":4.78e-6,"MEAN_MOTION_DDOT":0},{"OBJECT_NAME":"STARLINK-2336","OBJECT_ID":"2021-021V","EPOCH":"2025-10-28T14:12:00.828000","MEAN_MOTION":15.0640638,"ECCENTRICITY":0.00015748,"INCLINATION":53.0533,"RA_OF_ASC_NODE":159.6281,"ARG_OF_PERICENTER":89.5742,"MEAN_ANOMALY":270.5427,"EPHEMERIS_TYPE":0,"CLASSIFICATION_TYPE":"U","NORAD_CAT_ID":47879,"ELEMENT_SET_NO":999,"REV_AT_EPOCH":25624,"BSTAR":-5.7341459e-5,"MEAN_MOTION_DOT":-1.136e-5,"MEAN_MOTION_DDOT":0},{"OBJECT_NAME":"STARLINK-2340","OBJECT_ID":"2021-021Y","EPOCH":"2025-10-28T16:00:07.000416","MEAN_MOTION":15.67772406,"ECCENTRICITY":0.0004909,"INCLINATION":53.0375,"RA_OF_ASC_NODE":64.7117,"ARG_OF_PERICENTER":296.2891,"MEAN_ANOMALY":114.7985,"EPHEMERIS_TYPE":0,"CLASSIFICATION_TYPE":"U","NORAD_CAT_ID":47882,"ELEMENT_SET_NO":999,"REV_AT_EPOCH":574,"BSTAR":0.0013502301,"MEAN_MOTION_DOT":0.00153396,"MEAN_MOTION_DDOT":0},{"OBJECT_NAME":"STARLINK-2342","OBJECT_ID":"2021-021Z","EPOCH":"2025-10-28T14:29:15.798912","MEAN_MOTION":15.06409085,"ECCENTRICITY":0.00013067,"INCLINATION":53.0509,"RA_OF_ASC_NODE":149.5749,"ARG_OF_PERICENTER":96.3177,"MEAN_ANOMALY":263.7961,"EPHEMERIS_TYPE":0,"CLASSIFICATION_TYPE":"U","NORAD_CAT_ID":47883,"ELEMENT_SET_NO":999,"REV_AT_EPOCH":25638,"BSTAR":0.00046281911,"MEAN_MOTION_DOT":6.621e-5,"MEAN_MOTION_DDOT":0},{"OBJECT_NAME":"STARLINK-2343","OBJECT_ID":"2021-021AA","EPOCH":"2025-10-28T14:04:43.923072","MEAN_MOTION":15.06397915,"ECCENTRICITY":0.00014657,"INCLINATION":53.054,"RA_OF_ASC_NODE":154.6531,"ARG_OF_PERICENTER":104.8492,"MEAN_ANOMALY":255.2659,"EPHEMERIS_TYPE":0,"CLASSIFICATION_TYPE":"U","NORAD_CAT_ID":47884,"ELEMENT_SET_NO":999,"REV_AT_EPOCH":25613,"BSTAR":-1.813851e-5,"MEAN_MOTION_DOT":-5.52e-6,"MEAN_MOTION_DDOT":0},{"OBJECT_NAME":"STARLINK-2346","OBJECT_ID":"2021-021AD","EPOCH":"2025-10-27T21:00:19.146240","MEAN_MOTION":15.06405958,"ECCENTRICITY":0.00014542,"INCLINATION":53.0532,"RA_OF_ASC_NODE":157.8482,"ARG_OF_PERICENTER":92.33,"MEAN_ANOMALY":267.7855,"EPHEMERIS_TYPE":0,"CLASSIFICATION_TYPE":"U","NORAD_CAT_ID":47887,"ELEMENT_SET_NO":999,"REV_AT_EPOCH":25603,"BSTAR":9.7657066e-5,"MEAN_MOTION_DOT":1.174e-5,"MEAN_MOTION_DDOT":0},{"OBJECT_NAME":"STARLINK-2354","OBJECT_ID":"2021-021AL","EPOCH":"2025-10-28T06:29:34.675872","MEAN_MOTION":15.06398007,"ECCENTRICITY":0.00014268,"INCLINATION":53.0529,"RA_OF_ASC_NODE":146.0729,"ARG_OF_PERICENTER":85.2307,"MEAN_ANOMALY":274.8845,"EPHEMERIS_TYPE":0,"CLASSIFICATION_TYPE":"U","NORAD_CAT_ID":47894,"ELEMENT_SET_NO":999,"REV_AT_EPOCH":25618,"BSTAR":7.9734474e-5,"MEAN_MOTION_DOT":9.06e-6,"MEAN_MOTION_DDOT":0},{"OBJECT_NAME":"STARLINK-2355","OBJECT_ID":"2021-021AM","EPOCH":"2025-10-28T13:07:39.584352","MEAN_MOTION":15.0639917,"ECCENTRICITY":0.00013025,"INCLINATION":53.0542,"RA_OF_ASC_NODE":144.8323,"ARG_OF_PERICENTER":93.77,"MEAN_ANOMALY":266.3438,"EPHEMERIS_TYPE":0,"CLASSIFICATION_TYPE":"U","NORAD_CAT_ID":47895,"ELEMENT_SET_NO":999,"REV_AT_EPOCH":25625,"BSTAR":0.00012466246,"MEAN_MOTION_DOT":1.576e-5,"MEAN_MOTION_DDOT":0},{"OBJECT_NAME":"STARLINK-2356","OBJECT_ID":"2021-021AN","EPOCH":"2025-10-28T14:33:14.417568","MEAN_MOTION":15.06404841,"ECCENTRICITY":0.00013142,"INCLINATION":53.0509,"RA_OF_ASC_NODE":159.5657,"ARG_OF_PERICENTER":87.6144,"MEAN_ANOMALY":272.4996,"EPHEMERIS_TYPE":0,"CLASSIFICATION_TYPE":"U","NORAD_CAT_ID":47896,"ELEMENT_SET_NO":999,"REV_AT_EPOCH":25602,"BSTAR":0.0002431718,"MEAN_MOTION_DOT":3.343e-5,"MEAN_MOTION_DDOT":0},{"OBJECT_NAME":"STARLINK-2358","OBJECT_ID":"2021-021AQ","EPOCH":"2025-10-28T06:34:53.585184","MEAN_MOTION":15.06398159,"ECCENTRICITY":0.00013237,"INCLINATION":53.0539,"RA_OF_ASC_NODE":146.0583,"ARG_OF_PERICENTER":92.1912,"MEAN_ANOMALY":267.9229,"EPHEMERIS_TYPE":0,"CLASSIFICATION_TYPE":"U","NORAD_CAT_ID":47898,"ELEMENT_SET_NO":999,"REV_AT_EPOCH":25618,"BSTAR":7.1167347e-5,"MEAN_MOTION_DOT":7.79e-6,"MEAN_MOTION_DDOT":0},{"OBJECT_NAME":"STARLINK-2361","OBJECT_ID":"2021-021AT","EPOCH":"2025-10-28T06:15:00.456480","MEAN_MOTION":15.06396512,"ECCENTRICITY":0.00012489,"INCLINATION":53.0521,"RA_OF_ASC_NODE":136.2038,"ARG_OF_PERICENTER":97.6262,"MEAN_ANOMALY":262.4869,"EPHEMERIS_TYPE":0,"CLASSIFICATION_TYPE":"U","NORAD_CAT_ID":47901,"ELEMENT_SET_NO":999,"REV_AT_EPOCH":25636,"BSTAR":0.00011226752,"MEAN_MOTION_DOT":1.391e-5,"MEAN_MOTION_DDOT":0},{"OBJECT_NAME":"STARLINK-2363","OBJECT_ID":"2021-021AV","EPOCH":"2025-10-28T06:24:14.804064","MEAN_MOTION":15.06398725,"ECCENTRICITY":0.00013186,"INCLINATION":53.0528,"RA_OF_ASC_NODE":136.0792,"ARG_OF_PERICENTER":87.4381,"MEAN_ANOMALY":272.6759,"EPHEMERIS_TYPE":0,"CLASSIFICATION_TYPE":"U","NORAD_CAT_ID":47903,"ELEMENT_SET_NO":999,"REV_AT_EPOCH":25671,"BSTAR":0.00029253075,"MEAN_MOTION_DOT":4.078e-5,"MEAN_MOTION_DDOT":0},{"OBJECT_NAME":"STARLINK-2364","OBJECT_ID":"2021-021AW","EPOCH":"2025-10-28T12:42:26.296128","MEAN_MOTION":15.06397648,"ECCENTRICITY":0.00011834,"INCLINATION":53.0527,"RA_OF_ASC_NODE":134.9107,"ARG_OF_PERICENTER":92.0237,"MEAN_ANOMALY":268.0887,"EPHEMERIS_TYPE":0,"CLASSIFICATION_TYPE":"U","NORAD_CAT_ID":47904,"ELEMENT_SET_NO":999,"REV_AT_EPOCH":25639,"BSTAR":0.0001276057,"MEAN_MOTION_DOT":1.62e-5,"MEAN_MOTION_DDOT":0},{"OBJECT_NAME":"STARLINK-2367","OBJECT_ID":"2021-021AZ","EPOCH":"2025-10-28T08:03:47.122848","MEAN_MOTION":15.06403887,"ECCENTRICITY":0.00013283,"INCLINATION":53.0516,"RA_OF_ASC_NODE":155.7803,"ARG_OF_PERICENTER":77.0225,"MEAN_ANOMALY":283.0913,"EPHEMERIS_TYPE":0,"CLASSIFICATION_TYPE":"U","NORAD_CAT_ID":47907,"ELEMENT_SET_NO":999,"REV_AT_EPOCH":25606,"BSTAR":0.00023675884,"MEAN_MOTION_DOT":3.247e-5,"MEAN_MOTION_DDOT":0},{"OBJECT_NAME":"STARLINK-2368","OBJECT_ID":"2021-021BA","EPOCH":"2025-10-24T22:00:03.998880","MEAN_MOTION":15.52507398,"ECCENTRICITY":0.0001015,"INCLINATION":53.0535,"RA_OF_ASC_NODE":166.1849,"ARG_OF_PERICENTER":86.8152,"MEAN_ANOMALY":51.7902,"EPHEMERIS_TYPE":0,"CLASSIFICATION_TYPE":"U","NORAD_CAT_ID":47908,"ELEMENT_SET_NO":999,"REV_AT_EPOCH":579,"BSTAR":0.016717,"MEAN_MOTION_DOT":0.01139379,"MEAN_MOTION_DDOT":0}]
